JILIN-1 GAOFEN 3A       
1 44312U 19032C   26068.74542089  .00016264  00000+0  55381-3 0  9993
2 44312  44.9746 183.2861 0002618 111.2900 248.8263 15.30271310372592
STARLINK-34598          
1 64759U 25147E   26068.75070306  .00020032  00000+0  68603-3 0  9992
2 64759  53.1584 242.2833 0001372  72.3669 287.7482 15.30228609 38712
